[{"OBJECT_NAME":"ONEWEB-0532","OBJECT_ID":"2023-004A","EPOCH":"2026-03-09T20:39:25.580736","MEAN_MOTION":13.17648914,"ECCENTRICITY":0.0001921,"INCLINATION":87.9162,"RA_OF_ASC_NODE":25.5867,"ARG_OF_PERICENTER":68.5799,"MEAN_ANOMALY":291.5537,"EPHEMERIS_TYPE":0,"CLASSIFICATION_TYPE":"U","NORAD_CAT_ID":55140,"ELEMENT_SET_NO":999,"REV_AT_EPOCH":15450,"BSTAR":-0.00011889847,"MEAN_MOTION_DOT":-3.3e-7,"MEAN_MOTION_DDOT":0},{"OBJECT_NAME":"SL-14 DEB","OBJECT_ID":"1991-056C","EPOCH":"2026-03-09T19:45:00.808992","MEAN_MOTION":13.18013758,"ECCENTRICITY":0.00036809,"INCLINATION":82.5539,"RA_OF_ASC_NODE":206.1276,"ARG_OF_PERICENTER":304.5802,"MEAN_ANOMALY":55.4974,"EPHEMERIS_TYPE":0,"CLASSIFICATION_TYPE":"U","NORAD_CAT_ID":45266,"ELEMENT_SET_NO":999,"REV_AT_EPOCH":29203,"BSTAR":0.00029517141,"MEAN_MOTION_DOT":1.28e-6,"MEAN_MOTION_DDOT":0}]
